LYNK TOWER 3            
1 55046U 23001AP  26068.68752747  .00013886  00000+0  42324-3 0  9997
2 55046  97.3321 129.5399 0009859 112.8813 247.3472 15.34026505176644
STARLINK-34694          
1 66189U 25243N   26068.75552243  .00032934  00000+0  11196-2 0  9991
2 66189  53.1598 244.9627 0000760  22.0027 338.1006 15.30188707 20668
